NORAD_CAT_ID,OBJECT_NAME,OBJECT_TYPE,EPOCH,MEAN_MOTION,ECCENTRICITY,INCLINATION,RA_OF_ASC_NODE,ARG_OF_PERICENTER,MEAN_ANOMALY,BSTAR,MEAN_MOTION_DOT,MEAN_MOTION_DDOT,TLE_LINE0,TLE_LINE1,TLE_LINE2,SEMIMAJOR_AXIS,PERIOD,APOGEE,PERIGEE,DECAYED
51897.0,STARLINK-3598,PAYLOAD,2023-03-22 15:18:42,15.08848996,0.00019,53.2171,181.131,120.8709,239.247,0.0001371,1.895e-05,0.0,0 STARLINK-3598,1 51897U 22022AX  23081.63799083  .00001895  00000-0  13710-3 0  9995,2 51897  53.2171 181.1310 0001900 120.8709 239.2470 15.08848996 59743,6917.853,95.437,541.032,538.403,0.0
51897.0,STARLINK-3598,PAYLOAD,2023-03-23 11:58:43,15.08848364,0.0001609,53.2159,177.2636,120.8795,239.2355,0.00022068,3.227e-05,0.0,0 STARLINK-3598,1 51897U 22022AX  23082.49910919  .00003227  00000-0  22068-3 0  9990,2 51897  53.2159 177.2636 0001609 120.8795 239.2355 15.08848364 59872,6917.855,95.437,540.833,538.607,0.0
51897.0,STARLINK-3598,PAYLOAD,2023-03-24 05:27:56,15.08887313,0.0001306,53.2146,173.9928,110.4535,249.6597,0.0013705,0.00021619,0.0,0 STARLINK-3598,1 51897U 22022AX  23083.22773852  .00021619  00000-0  13705-2 0  9997,2 51897  53.2146 173.9928 0001306 110.4535 249.6597 15.08887313 59988,6917.736,95.435,540.504,538.697,0.0
51897.0,STARLINK-3598,PAYLOAD,2023-03-24 13:24:51,15.0892307,0.0001661,53.2143,172.5073,99.5952,260.5228,0.0030283,0.00048349,0.0,0 STARLINK-3598,1 51897U 22022AX  23083.55892439  .00048349  00000-0  30283-2 0  9995,2 51897  53.2143 172.5073 0001661  99.5952 260.5228 15.08923070 60037,6917.626,95.432,540.641,538.342,0.0
51897.0,STARLINK-3598,PAYLOAD,2023-03-24 15:00:13,15.08938828,0.0001657,53.2144,172.2094,101.2545,258.8633,0.0036975,0.00059213,0.0,0 STARLINK-3598,1 51897U 22022AX  23083.62515982  .00059213  00000-0  36975-2 0  9994,2 51897  53.2144 172.2094 0001657 101.2545 258.8633 15.08938828 60040,6917.578,95.431,540.59,538.297,0.0
51897.0,STARLINK-3598,PAYLOAD,2023-03-24 22:57:09,15.08871217,0.0001896,53.2139,170.722,87.4263,272.6946,-0.00031536,-5.308e-05,0.0,0 STARLINK-3598,1 51897U 22022AX  23083.95636105 -.00005308  00000-0 -31536-3 0  9998,2 51897  53.2139 170.7220 0001896  87.4263 272.6946 15.08871217 60099,6917.785,95.436,540.962,538.338,0.0
51897.0,STARLINK-3598,PAYLOAD,2023-03-25 11:40:16,15.08790532,0.0001734,53.2144,168.3447,97.7167,262.4022,-0.0015158,-0.00024299,0.0,0 STARLINK-3598,1 51897U 22022AX  23084.48630474 -.00024299  00000-0 -15158-2 0  9991,2 51897  53.2144 168.3447 0001734  97.7167 262.4022 15.08790532 60178,6918.032,95.441,541.096,538.697,0.0
51897.0,STARLINK-3598,PAYLOAD,2023-03-25 14:51:03,15.08792041,0.0001756,53.2137,167.7495,98.7733,261.3458,-0.00076666,-0.00012453,0.0,0 STARLINK-3598,1 51897U 22022AX  23084.61878946 -.00012453  00000-0 -76666-3 0  9995,2 51897  53.2137 167.7495 0001756  98.7733 261.3458 15.08792041 60190,6918.027,95.441,541.107,538.677,0.0
51897.0,STARLINK-3598,PAYLOAD,2023-03-26 05:09:33,15.08826146,0.0001621,53.2132,165.0715,100.6431,259.4744,0.0024643,0.00039135,0.0,0 STARLINK-3598,1 51897U 22022AX  23085.21496817  .00039135  00000-0  24643-2 0  9996,2 51897  53.2132 165.0715 0001621 100.6431 259.4744 15.08826146 60280,6917.923,95.438,540.909,538.666,0.0
51897.0,STARLINK-3598,PAYLOAD,2023-03-26 11:31:05,15.0884195,0.0001606,53.2133,163.8813,100.9982,259.1191,0.0022615,0.00035889,0.0,0 STARLINK-3598,1 51897U 22022AX  23085.47992924  .00035889  00000-0  22615-2 0  9993,2 51897  53.2133 163.8813 0001606 100.9982 259.1191 15.08841950 60321,6917.874,95.437,540.85,538.628,0.0
51897.0,STARLINK-3598,PAYLOAD,2023-03-26 22:38:47,15.08855312,0.0001598,53.2131,161.7996,98.4751,261.6422,0.0016097,0.00025434,0.0,0 STARLINK-3598,1 51897U 22022AX  23085.94360850  .00025434  00000-0  16097-2 0  9994,2 51897  53.2131 161.7996 0001598  98.4751 261.6422 15.08855312 60392,6917.834,95.437,540.804,538.593,0.0
51897.0,STARLINK-3598,PAYLOAD,2023-03-27 11:21:52,15.08873872,0.0001589,53.2134,159.4212,95.2789,264.8384,0.0015156,0.00023938,0.0,0 STARLINK-3598,1 51897U 22022AX  23086.47352058  .00023938  00000-0  15156-2 0  9996,2 51897  53.2134 159.4212 0001589  95.2789 264.8384 15.08873872 60478,6917.777,95.435,540.741,538.543,0.0
51897.0,STARLINK-3598,PAYLOAD,2023-03-27 16:08:01,15.08886286,0.00016,53.2133,158.5286,95.7665,264.3509,0.0016798,0.00026581,0.0,0 STARLINK-3598,1 51897U 22022AX  23086.67223459  .00026581  00000-0  16798-2 0  9990,2 51897  53.2133 158.5286 0001600  95.7665 264.3509 15.08886286 60501,6917.739,95.435,540.711,538.497,0.0
51897.0,STARLINK-3598,PAYLOAD,2023-03-28 11:12:39,15.08849618,0.0001588,53.2135,154.9589,90.6842,269.4332,0.00041255,6.286e-05,0.0,0 STARLINK-3598,1 51897U 22022AX  23087.46711857  .00006286  00000-0  41255-3 0  9999,2 51897  53.2135 154.9589 0001588  90.6842 269.4332 15.08849618 60626,6917.851,95.437,540.815,538.617,0.0
51897.0,STARLINK-3598,PAYLOAD,2023-03-28 15:58:48,15.0885489,0.0001542,53.214,154.0678,111.4588,248.6568,0.0014894,0.00023505,0.0,0 STARLINK-3598,1 51897U 22022AX  23087.66583695  .00023505  00000-0  14894-2 0  9999,2 51897  53.2140 154.0678 0001542 111.4588 248.6568 15.08854890 60652,6917.835,95.437,540.767,538.633,0.0
51897.0,STARLINK-3598,PAYLOAD,2023-03-28 19:09:34,15.08814663,0.0001616,53.2145,153.4713,99.9372,260.1803,0.00081187,0.00012648,0.0,0 STARLINK-3598,1 51897U 22022AX  23087.79831976  .00012648  00000-0  81187-3 0  9997,2 51897  53.2145 153.4713 0001616  99.9372 260.1803 15.08814663 60670,6917.958,95.439,540.941,538.705,0.0
51897.0,STARLINK-3598,PAYLOAD,2023-03-29 09:28:03,15.08844531,0.0001422,53.2147,150.7952,104.5847,255.5303,0.0015335,0.00024205,0.0,0 STARLINK-3598,1 51897U 22022AX  23088.39448323  .00024205  00000-0  15335-2 0  9997,2 51897  53.2147 150.7952 0001422 104.5847 255.5303 15.08844531 60762,6917.867,95.437,540.715,538.748,0.0
51897.0,STARLINK-3598,PAYLOAD,2023-03-29 20:35:45,15.08842268,0.0001084,53.2156,148.7147,102.9187,257.1926,0.00079967,0.00012462,0.0,0 STARLINK-3598,1 51897U 22022AX  23088.85816305  .00012462  00000-0  79967-3 0  9991,2 51897  53.2156 148.7147 0001084 102.9187 257.1926 15.08842268 60830,6917.873,95.437,540.488,538.989,0.0
51897.0,STARLINK-3598,PAYLOAD,2023-03-30 04:32:41,15.08836923,0.0001486,53.2156,147.2271,96.0351,264.0811,0.0012443,0.00019569,0.0,0 STARLINK-3598,1 51897U 22022AX  23089.18936654  .00019569  00000-0  12443-2 0  9998,2 51897  53.2156 147.2271 0001486  96.0351 264.0811 15.08836923 60880,6917.89,95.438,540.783,538.727,0.0
51897.0,STARLINK-3598,PAYLOAD,2023-03-30 20:26:32,15.08848449,0.0001705,53.2153,144.2537,87.8593,272.2595,0.00094486,0.00014785,0.0,0 STARLINK-3598,1 51897U 22022AX  23089.85176615  .00014785  00000-0  94486-3 0  9998,2 51897  53.2153 144.2537 0001705  87.8593 272.2595 15.08848449 60986,6917.855,95.437,540.899,538.54,0.0
51897.0,STARLINK-3598,PAYLOAD,2023-03-31 20:17:19,15.0882656,0.000108,53.2137,139.7934,108.2649,251.846,-0.00042898,-7.106e-05,0.0,0 STARLINK-3598,1 51897U 22022AX  23090.84536465 -.00007106  00000-0 -42898-3 0  9993,2 51897  53.2137 139.7934 0001080 108.2649 251.8460 15.08826560 61136,6917.921,95.438,540.534,539.039,0.0
51897.0,STARLINK-3598,PAYLOAD,2023-04-01 10:35:48,15.08828731,0.000134,53.2141,137.1182,96.9793,263.1352,0.0011375,0.00017856,0.0,0 STARLINK-3598,1 51897U 22022AX  23091.44153174  .00017856  00000-0  11375-2 0  9998,2 51897  53.2141 137.1182 0001340  96.9793 263.1352 15.08828731 61228,6917.915,95.438,540.707,538.853,0.0
51897.0,STARLINK-3598,PAYLOAD,2023-04-01 20:08:07,15.08840819,0.0001422,53.2143,135.3337,97.0513,263.0641,0.00092902,0.00014529,0.0,0 STARLINK-3598,1 51897U 22022AX  23091.83897293  .00014529  00000-0  92902-3 0  9998,2 51897  53.2143 135.3337 0001422  97.0513 263.0641 15.08840819 61282,6917.878,95.438,540.727,538.759,0.0
51897.0,STARLINK-3598,PAYLOAD,2023-04-02 12:01:58,15.08863302,0.0001379,53.2135,132.3594,98.9475,261.1674,0.0012096,0.00019027,0.0,0 STARLINK-3598,1 51897U 22022AX  23092.50136851  .00019027  00000-0  12096-2 0  9992,2 51897  53.2135 132.3594 0001379  98.9475 261.1674 15.08863302 61381,6917.809,95.436,540.628,538.72,0.0
51897.0,STARLINK-3598,PAYLOAD,2023-04-02 19:58:54,15.08843883,0.0001522,53.2135,130.8734,82.8111,277.3055,0.00060786,9.4e-05,0.0,0 STARLINK-3598,1 51897U 22022AX  23092.83257235  .00009400  00000-0  60786-3 0  9992,2 51897  53.2135 130.8734 0001522  82.8111 277.3055 15.08843883 61439,6917.869,95.437,540.786,538.681,0.0
51897.0,STARLINK-3598,PAYLOAD,2023-04-03 08:41:59,15.088406,0.0001477,53.214,128.4924,98.6337,261.4823,0.00029064,4.341e-05,0.0,0 STARLINK-3598,1 51897U 22022AX  23093.36249346  .00004341  00000-0  29064-3 0  9998,2 51897  53.2140 128.4924 0001477  98.6337 261.4823 15.08840600 61513,6917.879,95.438,540.765,538.722,0.0
51897.0,STARLINK-3598,PAYLOAD,2023-04-03 13:28:08,15.08839827,0.0001463,53.2138,127.6003,97.7461,262.3697,0.00034709,5.24e-05,0.0,0 STARLINK-3598,1 51897U 22022AX  23093.56121422  .00005240  00000-0  34709-3 0  9995,2 51897  53.2138 127.6003 0001463  97.7461 262.3697 15.08839827 61543,6917.881,95.438,540.758,538.734,0.0
51897.0,STARLINK-3598,PAYLOAD,2023-04-03 19:49:41,15.08842356,0.0001483,53.2139,126.4109,96.0939,264.0222,0.00053447,8.229e-05,0.0,0 STARLINK-3598,1 51897U 22022AX  23093.82617456  .00008229  00000-0  53447-3 0  9991,2 51897  53.2139 126.4109 0001483  96.0939 264.0222 15.08842356 61580,6917.873,95.437,540.764,538.712,0.0
51897.0,STARLINK-3598,PAYLOAD,2023-04-04 13:18:55,15.08866681,0.0001419,53.2139,123.1392,94.8696,265.2458,0.0008108,0.00012649,0.0,0 STARLINK-3598,1 51897U 22022AX  23094.55480452  .00012649  00000-0  81080-3 0  9991,2 51897  53.2139 123.1392 0001419  94.8696 265.2458 15.08866681 61696,6917.799,95.436,540.645,538.682,0.0
51897.0,STARLINK-3598,PAYLOAD,2023-04-05 05:12:46,15.08842513,0.0001311,53.2142,120.1664,93.4163,266.6979,5.7176e-05,6.22e-06,0.0,0 STARLINK-3598,1 51897U 22022AX  23095.21720833  .00000622  00000-0  57176-4 0  9993,2 51897  53.2142 120.1664 0001311  93.4163 266.6979 15.08842513 61796,6917.873,95.437,540.645,538.831,0.0
